     2.100          NAVIGATION                              RINEX VERSION / TYPE
fic2rin                                 12/03/2013 00:25:28 PGM / RUN BY / DATE
                                                            END OF HEADER
 7 13 12  2  8  0  0.0  .287040602416D-03  .420641299570D-11  .000000000000D+00
     .710000000000D+02 -.881250000000D+01  .456947605130D-08 -.169036772242D+01
    -.620260834694D-06  .699479656760D-02 -.333413481712D-06  .515366130638D+04
     .115200000000D+06  .111758708954D-06 -.168520512840D+01 -.502914190292D-07
     .974287702719D+00  .391250000000D+03 -.283682127411D+01 -.846713840459D-08
     .136791412197D-09  .100000000000D+01  .176900000000D+04  .000000000000D+00
     .240000000000D+01  .000000000000D+00 -.107102096081D-07  .710000000000D+02
     .108006000000D+06  .400000000000D+01
 8 13 12  2  8  0  0.0  .102808699012D-04  .227373675443D-12  .000000000000D+00
     .750000000000D+02 -.339375000000D+02  .409517058029D-08 -.226249284634D+01
    -.192411243916D-05  .134626262588D-01  .245869159698D-06  .515366673470D+04
     .115200000000D+06  .745058059692D-07 -.158967103483D+01 -.301748514175D-06
     .997277429614D+00  .396812500000D+03 -.280236057542D+01 -.814569644381D-08
     .450018745087D-10  .100000000000D+01  .176900000000D+04  .000000000000D+00
     .340000000000D+01  .000000000000D+00 -.465661287308D-08  .750000000000D+02
     .108006000000D+06  .400000000000D+01
 9 13 12  2  8  0  0.0  .287380535156D-03  .284217094304D-11  .000000000000D+00
     .640000000000D+02 -.562500000000D+00  .448625829924D-08 -.519698386815D+00
    -.175088644028D-06  .168430375634D-01  .579282641411D-06  .515370318985D+04
     .115200000000D+06 -.178813934326D-06 -.170700561993D+01  .130385160446D-07
     .982862256181D+00  .385843750000D+03  .174771585053D+01 -.867893294096D-08
     .131076888450D-09  .100000000000D+01  .176900000000D+04  .000000000000D+00
     .340000000000D+01  .000000000000D+00 -.605359673500D-08  .640000000000D+02
     .108006000000D+06  .400000000000D+01
10 13 12  2  8  0  0.0 -.104164704680D-03 -.159161572810D-11  .000000000000D+00
     .760000000000D+02 -.103125000000D+01  .464162191361D-08  .222591320297D+01
    -.158324837685D-06  .132343078731D-01  .112541019917D-04  .515368681145D+04
     .115200000000D+06 -.115483999252D-06  .249669965983D+01 -.206753611565D-06
     .942798522726D+00  .154156250000D+03  .836581143648D+00 -.791782980939D-08
    -.600739308918D-09  .100000000000D+01  .176900000000D+04  .000000000000D+00
     .240000000000D+01  .000000000000D+00 -.279396772385D-08  .760000000000D+02
     .108006000000D+06  .400000000000D+01
11 13 12  2  8  0  0.0 -.443090684712D-03 -.341060513165D-11  .000000000000D+00
     .510000000000D+02  .357500000000D+02  .661848997239D-08 -.145110600471D+01
     .206939876080D-05  .147776727099D-01  .437349081039D-05  .515368371582D+04
     .115200000000D+06  .230967998505D-06  .112632506727D+01  .296160578728D-06
     .889281098264D+00  .254812500000D+03  .124706790918D+01 -.905073414226D-08
     .302512600864D-09  .100000000000D+01  .176900000000D+04  .000000000000D+00
     .240000000000D+01  .000000000000D+00 -.116415321827D-07  .510000000000D+02
     .108006000000D+06  .400000000000D+01
12 13 12  2  8  0  0.0  .171528197825D-03  .227373675443D-11  .000000000000D+00
     .290000000000D+02 -.155187500000D+03  .376551399163D-08 -.199826197556D+01
    -.798143446445D-05  .458159856498D-02  .102501362562D-04  .515372685623D+04
     .115200000000D+06  .707805156708D-07 -.624027368330D+00 -.800937414169D-07
     .986215306843D+00  .192656250000D+03  .329082473960D+00 -.773067915667D-08
    -.174292974288D-09  .100000000000D+01  .176900000000D+04  .000000000000D+00
     .240000000000D+01  .000000000000D+00 -.121071934700D-07  .290000000000D+02
     .108006000000D+06  .400000000000D+01
13 13 12  2  8  0  0.0  .541051849723D-04 -.375166564481D-11  .000000000000D+00
     .940000000000D+02  .146000000000D+03  .391516308226D-08  .678274260800D+00
     .761635601521D-05  .505076895934D-02  .748969614506D-05  .515367726707D+04
     .115200000000D+06 -.372529029846D-07 -.265120343550D+01 -.819563865662D-07
     .979808895991D+00  .243468750000D+03  .219294677123D+01 -.795497421375D-08
     .372158359032D-09  .100000000000D+01  .176900000000D+04  .000000000000D+00
     .240000000000D+01  .000000000000D+00 -.111758708954D-07  .940000000000D+02
     .108006000000D+06  .400000000000D+01
14 13 12  2  8  0  0.0  .209014862776D-03 -.113686837722D-11  .000000000000D+00
     .620000000000D+02  .161125000000D+03  .410945688966D-08  .947383243618D+00
     .830180943012D-05  .734433182515D-02  .813417136669D-05  .515359818649D+04
     .115200000000D+06 -.838190317154D-07 -.268179478025D+01  .558793544769D-08
     .972440385360D+00  .224937500000D+03 -.198445213130D+01 -.811390940547D-08
     .330013746397D-09  .100000000000D+01  .176900000000D+04  .000000000000D+00
     .240000000000D+01  .000000000000D+00 -.884756445885D-08  .620000000000D+02
     .108006000000D+06  .400000000000D+01
15 13 12  2  8  0  0.0 -.150098931044D-03 -.193267624127D-11  .000000000000D+00
     .760000000000D+02  .159562500000D+03  .476555564738D-08  .454371989183D+00
     .834837555885D-05  .593599816784D-02  .814162194729D-05  .515361734962D+04
     .115200000000D+06  .147148966789D-06 -.278790814878D+01  .894069671631D-07
     .939084138612D+00  .209812500000D+03  .192141323869D+00 -.830213153139D-08
     .261082303697D-09  .100000000000D+01  .176900000000D+04  .000000000000D+00
     .240000000000D+01  .000000000000D+00 -.102445483208D-07  .760000000000D+02
     .108006000000D+06  .400000000000D+01
17 13 12  2  8  0  0.0 -.461651943624D-04 -.352429196937D-11  .000000000000D+00
     .520000000000D+02  .931250000000D+01  .436768193148D-08  .115964062442D+01
     .543892383575D-06  .881967891473D-02  .112801790237D-04  .515371320534D+04
     .115200000000D+06 -.171363353729D-06  .428196554825D+00  .707805156708D-07
     .967233418114D+00  .169218750000D+03 -.217630117145D+01 -.795140263641D-08
     .525736184737D-09  .100000000000D+01  .176900000000D+04  .000000000000D+00
     .240000000000D+01  .000000000000D+00 -.107102096081D-07  .520000000000D+02
     .108006000000D+06  .400000000000D+01
18 13 12  2  8  0  0.0  .288156326860D-03  .216004991671D-11  .000000000000D+00
     .670000000000D+02 -.118750000000D+01  .492556231230D-08  .270828209704D+01
    -.113621354103D-06  .145789483795D-01  .115185976028D-04  .515365562439D+04
     .115200000000D+06  .121071934700D-06  .247692107761D+01 -.189989805222D-06
     .926542945684D+00  .135250000000D+03 -.206952426571D+01 -.785211278630D-08
    -.676456748567D-09  .100000000000D+01  .176900000000D+04  .000000000000D+00
     .240000000000D+01  .000000000000D+00 -.111758708954D-07  .670000000000D+02
     .108006000000D+06  .400000000000D+01
19 13 12  2  8  0  0.0 -.422554090619D-03 -.261479726760D-11  .000000000000D+00
     .350000000000D+02  .906250000000D+00  .449840166220D-08  .293776847911D+00
     .162050127983D-06  .963367172517D-02  .102669000626D-04  .515376338005D+04
     .115200000000D+06  .109896063805D-06  .479547883300D+00  .875443220139D-07
     .964359309276D+00  .180375000000D+03  .397512265044D+00 -.796426031484D-08
     .547165648788D-09  .100000000000D+01  .176900000000D+04  .000000000000D+00
     .240000000000D+01  .000000000000D+00 -.149011611938D-07  .350000000000D+02
     .108006000000D+06  .400000000000D+01
21 13 12  2  8  0  0.0 -.331171322614D-03 -.170530256582D-11  .000000000000D+00
     .740000000000D+02 -.337500000000D+01  .560130474540D-08 -.254325428912D+01
    -.350177288055D-06  .207145690219D-01  .409036874771D-05  .515358089638D+04
     .115200000000D+06  .234693288803D-06  .143029252792D+01 -.119209289551D-06
     .931383154978D+00  .281625000000D+03 -.208667015714D+01 -.823248577322D-08
     .857178562071D-10  .100000000000D+01  .176900000000D+04  .000000000000D+00
     .240000000000D+01  .000000000000D+00 -.111758708954D-07  .740000000000D+02
     .108006000000D+06  .400000000000D+01
22 13 12  2  8  0  0.0  .198387540877D-03  .227373675443D-11  .000000000000D+00
     .800000000000D+02 -.484375000000D+01  .518235872319D-08  .214855722120D+01
    -.258907675743D-06  .669430894777D-02  .116452574730D-04  .515364248276D+04
     .115200000000D+06  .204890966415D-07  .247915424108D+01 -.225380063057D-06
     .924305800155D+00  .133750000000D+03 -.204731721023D+01 -.814605360154D-08
    -.652170022642D-09  .100000000000D+01  .176900000000D+04  .000000000000D+00
     .240000000000D+01  .000000000000D+00 -.172294676304D-07  .800000000000D+02
     .108006000000D+06  .400000000000D+01
23 13 12  2  8  0  0.0  .251177698374D-04 -.329691829393D-11  .000000000000D+00
     .106000000000D+03  .143500000000D+03  .451768817985D-08 -.784515347927D-01
     .762753188610D-05  .882799131796D-02  .866688787937D-05  .515363094330D+04
     .115200000000D+06  .100582838058D-06 -.274391759356D+01  .670552253723D-07
     .954073808752D+00  .208468750000D+03 -.280891036541D+01 -.822641409174D-08
     .306084178206D-09  .100000000000D+01  .176900000000D+04  .000000000000D+00
     .240000000000D+01  .000000000000D+00 -.200234353542D-07  .106000000000D+03
     .108006000000D+06  .400000000000D+01
24 13 12  2  8  0  0.0 -.184234231710D-04 -.682121026330D-12  .000000000000D+00
     .290000000000D+02 -.100000000000D+02  .506413951317D-08 -.589921515045D+00
    -.510364770889D-06  .143455376383D-02 -.728294253349D-06  .515363921165D+04
     .115200000000D+06 -.223517417908D-07 -.171691845085D+01 -.447034835815D-07
     .957743477312D+00  .392687500000D+03  .824797572587D-01 -.876322216624D-08
     .307155651409D-10  .100000000000D+01  .176900000000D+04  .000000000000D+00
     .240000000000D+01  .000000000000D+00  .279396772385D-08  .290000000000D+02
     .108006000000D+06  .400000000000D+01
